[{"OBJECT_NAME":"STARLINK-32891","OBJECT_ID":"2025-027W","EPOCH":"2025-07-30T17:30:43.273728","MEAN_MOTION":15.27595355,"ECCENTRICITY":0.0001144,"INCLINATION":42.9985,"RA_OF_ASC_NODE":302.6213,"ARG_OF_PERICENTER":257.1405,"MEAN_ANOMALY":102.9319,"EPHEMERIS_TYPE":0,"CLASSIFICATION_TYPE":"U","NORAD_CAT_ID":62927,"ELEMENT_SET_NO":999,"REV_AT_EPOCH":2771,"BSTAR":0.0006972,"MEAN_MOTION_DOT":0.00018982,"MEAN_MOTION_DDOT":0},{"OBJECT_NAME":"STARLINK-32728","OBJECT_ID":"2025-029A","EPOCH":"2025-07-31T03:52:23.746944","MEAN_MOTION":15.30223448,"ECCENTRICITY":9.47e-5,"INCLINATION":53.1594,"RA_OF_ASC_NODE":179.0914,"ARG_OF_PERICENTER":102.0536,"MEAN_ANOMALY":258.0571,"EPHEMERIS_TYPE":0,"CLASSIFICATION_TYPE":"U","NORAD_CAT_ID":62948,"ELEMENT_SET_NO":999,"REV_AT_EPOCH":2712,"BSTAR":0.00083002,"MEAN_MOTION_DOT":0.00024322,"MEAN_MOTION_DDOT":0},{"OBJECT_NAME":"STARLINK-32857","OBJECT_ID":"2025-029B","EPOCH":"2025-07-31T03:29:36.362400","MEAN_MOTION":15.30210816,"ECCENTRICITY":0.0001116,"INCLINATION":53.1564,"RA_OF_ASC_NODE":178.9996,"ARG_OF_PERICENTER":103.4481,"MEAN_ANOMALY":256.6644,"EPHEMERIS_TYPE":0,"CLASSIFICATION_TYPE":"U","NORAD_CAT_ID":62949,"ELEMENT_SET_NO":999,"REV_AT_EPOCH":2744,"BSTAR":0.001107,"MEAN_MOTION_DOT":0.00032582,"MEAN_MOTION_DDOT":0},{"OBJECT_NAME":"STARLINK-32850","OBJECT_ID":"2025-029C","EPOCH":"2025-07-31T04:23:33.239040","MEAN_MOTION":15.30208239,"ECCENTRICITY":0.0001417,"INCLINATION":53.1586,"RA_OF_ASC_NODE":181.3546,"ARG_OF_PERICENTER":64.6648,"MEAN_ANOMALY":295.45,"EPHEMERIS_TYPE":0,"CLASSIFICATION_TYPE":"U","NORAD_CAT_ID":62950,"ELEMENT_SET_NO":999,"REV_AT_EPOCH":2742,"BSTAR":0.00060434,"MEAN_MOTION_DOT":0.00017587,"MEAN_MOTION_DDOT":0},{"OBJECT_NAME":"STARLINK-32875","OBJECT_ID":"2025-029D","EPOCH":"2025-07-30T15:35:10.330368","MEAN_MOTION":15.30202469,"ECCENTRICITY":0.0001615,"INCLINATION":53.1593,"RA_OF_ASC_NODE":181.5835,"ARG_OF_PERICENTER":98.8376,"MEAN_ANOMALY":261.2807,"EPHEMERIS_TYPE":0,"CLASSIFICATION_TYPE":"U","NORAD_CAT_ID":62951,"ELEMENT_SET_NO":999,"REV_AT_EPOCH":2736,"BSTAR":0.00077017,"MEAN_MOTION_DOT":0.00022522,"MEAN_MOTION_DDOT":0},{"OBJECT_NAME":"STARLINK-32865","OBJECT_ID":"2025-029E","EPOCH":"2025-07-30T15:42:00.793440","MEAN_MOTION":15.3020177,"ECCENTRICITY":0.0001985,"INCLINATION":53.159,"RA_OF_ASC_NODE":183.7406,"ARG_OF_PERICENTER":90.9398,"MEAN_ANOMALY":269.183,"EPHEMERIS_TYPE":0,"CLASSIFICATION_TYPE":"U","NORAD_CAT_ID":62952,"ELEMENT_SET_NO":999,"REV_AT_EPOCH":2733,"BSTAR":0.00091034,"MEAN_MOTION_DOT":0.00026701,"MEAN_MOTION_DDOT":0},{"OBJECT_NAME":"STARLINK-32884","OBJECT_ID":"2025-029F","EPOCH":"2025-07-31T04:03:02.947968","MEAN_MOTION":15.30184688,"ECCENTRICITY":0.00012,"INCLINATION":53.1612,"RA_OF_ASC_NODE":179.1389,"ARG_OF_PERICENTER":70.5195,"MEAN_ANOMALY":289.5936,"EPHEMERIS_TYPE":0,"CLASSIFICATION_TYPE":"U","NORAD_CAT_ID":62953,"ELEMENT_SET_NO":999,"REV_AT_EPOCH":2744,"BSTAR":0.00036005,"MEAN_MOTION_DOT":0.00010314,"MEAN_MOTION_DDOT":0},{"OBJECT_NAME":"STARLINK-32874","OBJECT_ID":"2025-029G","EPOCH":"2025-07-31T05:17:19.957632","MEAN_MOTION":15.30207172,"ECCENTRICITY":0.0001134,"INCLINATION":53.1578,"RA_OF_ASC_NODE":178.7458,"ARG_OF_PERICENTER":108.0298,"MEAN_ANOMALY":252.0826,"EPHEMERIS_TYPE":0,"CLASSIFICATION_TYPE":"U","NORAD_CAT_ID":62954,"ELEMENT_SET_NO":999,"REV_AT_EPOCH":2745,"BSTAR":0.00096975,"MEAN_MOTION_DOT":0.00028479,"MEAN_MOTION_DDOT":0},{"OBJECT_NAME":"STARLINK-32880","OBJECT_ID":"2025-029H","EPOCH":"2025-07-31T04:12:55.004832","MEAN_MOTION":15.30208036,"ECCENTRICITY":0.000156,"INCLINATION":53.1601,"RA_OF_ASC_NODE":181.3074,"ARG_OF_PERICENTER":89.9556,"MEAN_ANOMALY":270.1624,"EPHEMERIS_TYPE":0,"CLASSIFICATION_TYPE":"U","NORAD_CAT_ID":62955,"ELEMENT_SET_NO":999,"REV_AT_EPOCH":2741,"BSTAR":0.00094735,"MEAN_MOTION_DOT":0.00027811,"MEAN_MOTION_DDOT":0},{"OBJECT_NAME":"STARLINK-32815","OBJECT_ID":"2025-029J","EPOCH":"2025-07-31T04:00:01.715328","MEAN_MOTION":15.30207689,"ECCENTRICITY":0.0001193,"INCLINATION":53.1593,"RA_OF_ASC_NODE":179.1254,"ARG_OF_PERICENTER":89.5323,"MEAN_ANOMALY":270.5814,"EPHEMERIS_TYPE":0,"CLASSIFICATION_TYPE":"U","NORAD_CAT_ID":62956,"ELEMENT_SET_NO":999,"REV_AT_EPOCH":2745,"BSTAR":0.00087156,"MEAN_MOTION_DOT":0.00025549,"MEAN_MOTION_DDOT":0},{"OBJECT_NAME":"STARLINK-32879","OBJECT_ID":"2025-029K","EPOCH":"2025-07-31T04:47:51.995904","MEAN_MOTION":15.3019343,"ECCENTRICITY":0.0001083,"INCLINATION":53.1568,"RA_OF_ASC_NODE":181.4611,"ARG_OF_PERICENTER":98.7034,"MEAN_ANOMALY":261.4089,"EPHEMERIS_TYPE":0,"CLASSIFICATION_TYPE":"U","NORAD_CAT_ID":62957,"ELEMENT_SET_NO":999,"REV_AT_EPOCH":2742,"BSTAR":0.0010326,"MEAN_MOTION_DOT":0.00030342,"MEAN_MOTION_DDOT":0},{"OBJECT_NAME":"STARLINK-32885","OBJECT_ID":"2025-029L","EPOCH":"2025-07-31T04:01:31.046016","MEAN_MOTION":15.30220746,"ECCENTRICITY":0.0001762,"INCLINATION":53.1598,"RA_OF_ASC_NODE":179.13,"ARG_OF_PERICENTER":86.2549,"MEAN_ANOMALY":273.8653,"EPHEMERIS_TYPE":0,"CLASSIFICATION_TYPE":"U","NORAD_CAT_ID":62958,"ELEMENT_SET_NO":999,"REV_AT_EPOCH":2743,"BSTAR":0.0012096,"MEAN_MOTION_DOT":0.00035661,"MEAN_MOTION_DDOT":0},{"OBJECT_NAME":"STARLINK-32896","OBJECT_ID":"2025-029M","EPOCH":"2025-07-30T22:49:53.553792","MEAN_MOTION":15.30214059,"ECCENTRICITY":0.0001805,"INCLINATION":53.1547,"RA_OF_ASC_NODE":182.7506,"ARG_OF_PERICENTER":90.8599,"MEAN_ANOMALY":269.2608,"EPHEMERIS_TYPE":0,"CLASSIFICATION_TYPE":"U","NORAD_CAT_ID":62959,"ELEMENT_SET_NO":999,"REV_AT_EPOCH":2736,"BSTAR":0.00089524,"MEAN_MOTION_DOT":0.00026261,"MEAN_MOTION_DDOT":0},{"OBJECT_NAME":"STARLINK-32877","OBJECT_ID":"2025-029N","EPOCH":"2025-07-31T03:22:55.650432","MEAN_MOTION":15.30190124,"ECCENTRICITY":0.0001133,"INCLINATION":53.156,"RA_OF_ASC_NODE":181.7988,"ARG_OF_PERICENTER":64.8322,"MEAN_ANOMALY":295.2797,"EPHEMERIS_TYPE":0,"CLASSIFICATION_TYPE":"U","NORAD_CAT_ID":62960,"ELEMENT_SET_NO":999,"REV_AT_EPOCH":2735,"BSTAR":0.00051286,"MEAN_MOTION_DOT":0.00014856,"MEAN_MOTION_DDOT":0},{"OBJECT_NAME":"STARLINK-32889","OBJECT_ID":"2025-029P","EPOCH":"2025-07-31T03:27:29.426112","MEAN_MOTION":15.30192446,"ECCENTRICITY":0.0001188,"INCLINATION":53.1558,"RA_OF_ASC_NODE":181.8237,"ARG_OF_PERICENTER":90.6064,"MEAN_ANOMALY":269.5073,"EPHEMERIS_TYPE":0,"CLASSIFICATION_TYPE":"U","NORAD_CAT_ID":62961,"ELEMENT_SET_NO":999,"REV_AT_EPOCH":2739,"BSTAR":0.00080072,"MEAN_MOTION_DOT":0.00023425,"MEAN_MOTION_DDOT":0},{"OBJECT_NAME":"STARLINK-32858","OBJECT_ID":"2025-029Q","EPOCH":"2025-07-31T03:36:26.916192","MEAN_MOTION":15.30193201,"ECCENTRICITY":9.84e-5,"INCLINATION":53.1562,"RA_OF_ASC_NODE":181.152,"ARG_OF_PERICENTER":108.6086,"MEAN_ANOMALY":251.5021,"EPHEMERIS_TYPE":0,"CLASSIFICATION_TYPE":"U","NORAD_CAT_ID":62962,"ELEMENT_SET_NO":999,"REV_AT_EPOCH":2730,"BSTAR":0.0013457,"MEAN_MOTION_DOT":0.00039701,"MEAN_MOTION_DDOT":0}]
