STARLINK-32891          
1 62927U 25027W   25211.72966752  .00018982  00000+0  69720-3 0  9991
2 62927  42.9985 302.6213 0001144 257.1405 102.9319 15.27595355 27715
STARLINK-32728          
1 62948U 25029A   25212.16138596  .00024322  00000+0  83002-3 0  9996
2 62948  53.1594 179.0914 0000947 102.0536 258.0571 15.30223448 27128
STARLINK-32857          
1 62949U 25029B   25212.14555975  .00032582  00000+0  11070-2 0  9991
2 62949  53.1564 178.9996 0001116 103.4481 256.6644 15.30210816 27442
STARLINK-32850          
1 62950U 25029C   25212.18302360  .00017587  00000+0  60434-3 0  9992
2 62950  53.1586 181.3546 0001417  64.6648 295.4500 15.30208239 27420
STARLINK-32875          
1 62951U 25029D   25211.64942512  .00022522  00000+0  77017-3 0  9992
2 62951  53.1593 181.5835 0001615  98.8376 261.2807 15.30202469 27362
STARLINK-32865          
1 62952U 25029E   25211.65417585  .00026701  00000+0  91034-3 0  9999
2 62952  53.1590 183.7406 0001985  90.9398 269.1830 15.30201770 27339
STARLINK-32884          
1 62953U 25029F   25212.16878412  .00010314  00000+0  36005-3 0  9997
2 62953  53.1612 179.1389 0001200  70.5195 289.5936 15.30184688 27446
STARLINK-32874          
1 62954U 25029G   25212.22036988  .00028479  00000+0  96975-3 0  9992
2 62954  53.1578 178.7458 0001134 108.0298 252.0826 15.30207172 27455
STARLINK-32880          
1 62955U 25029H   25212.17563663  .00027811  00000+0  94735-3 0  9993
2 62955  53.1601 181.3074 0001560  89.9556 270.1624 15.30208036 27417
STARLINK-32815          
1 62956U 25029J   25212.16668652  .00025549  00000+0  87156-3 0  9992
2 62956  53.1593 179.1254 0001193  89.5323 270.5814 15.30207689 27455
STARLINK-32879          
1 62957U 25029K   25212.19990736  .00030342  00000+0  10326-2 0  9998
2 62957  53.1568 181.4611 0001083  98.7034 261.4089 15.30193430 27428
STARLINK-32885          
1 62958U 25029L   25212.16772044  .00035661  00000+0  12096-2 0  9991
2 62958  53.1598 179.1300 0001762  86.2549 273.8653 15.30220746 27434
STARLINK-32896          
1 62959U 25029M   25211.95131428  .00026261  00000+0  89524-3 0  9990
2 62959  53.1547 182.7506 0001805  90.8599 269.2608 15.30214059 27362
STARLINK-32877          
1 62960U 25029N   25212.14092188  .00014856  00000+0  51286-3 0  9994
2 62960  53.1560 181.7988 0001133  64.8322 295.2797 15.30190124 27354
STARLINK-32889          
1 62961U 25029P   25212.14409058  .00023425  00000+0  80072-3 0  9990
2 62961  53.1558 181.8237 0001188  90.6064 269.5073 15.30192446 27394
STARLINK-32858          
1 62962U 25029Q   25212.15031153  .00039701  00000+0  13457-2 0  9995
2 62962  53.1562 181.1520 0000984 108.6086 251.5021 15.30193201 27300
